[
  {
    "OBJECT_NAME": "HADES-R",
    "OBJECT_ID": "2025-009CK",
    "EPOCH": "2025-05-17T07:14:21.924096",
    "MEAN_MOTION": 15.2754875,
    "ECCENTRICITY": 0.000467,
    "INCLINATION": 97.4092,
    "RA_OF_ASC_NODE": 218.2269,
    "ARG_OF_PERICENTER": 163.4065,
    "MEAN_ANOMALY": 196.7328,
    "EPHEMERIS_TYPE": 0,
    "CLASSIFICATION_TYPE": "U",
    "NORAD_CAT_ID": 62690,
    "ELEMENT_SET_NO": 999,
    "REV_AT_EPOCH": 1859,
    "BSTAR": 0.0017186,
    "MEAN_MOTION_DOT": 0.00046484,
    "MEAN_MOTION_DDOT": 0
  }
]