HADES-R                 
1 62690U 25009CK  25137.30164264  .00046484  00000+0  17186-2 0  9993
2 62690  97.4092 218.2269 0004670 163.4065 196.7328 15.27548750 18591
